{"type": "FeatureCollection", "features": [ {"type": "Feature", "properties": {"norad_id": 33799, "name": "COSMOS 2251 DEB", "group": "cosmos-2251-debris", "lat": -36.55379224702526, "lon": 67.47233630142036, "alt_km": 652.712306904401, "timestamp": "2025-12-13T18:50:04.822825+00:00", "meta": {"OBJECT_NAME": "COSMOS 2251 DEB", "OBJECT_ID": "1993-036AQ", "EPOCH": "2025-12-13T00:19:46.197696", "MEAN_MOTION": 14.79600018, "ECCENTRICITY": 0.0023329, "INCLINATION": 74.0314, "RA_OF_ASC_NODE": 81.2471, "ARG_OF_PERICENTER": 151.8547, "MEAN_ANOMALY": 24.5773, "EPHEMERIS_TYPE": 0, "CLASSIFICATION_TYPE": "U", "NORAD_CAT_ID": 33799, "ELEMENT_SET_NO": 999, "REV_AT_EPOCH": 88815, "BSTAR": 0.0016622098, "MEAN_MOTION_DOT": 0.00012504, "MEAN_MOTION_DDOT": 0}, "tle": {"line1": "1 33799U 93036AQ  25347.01372914  .00012504  00000+0  16622-2 0  9990", "line2": "2 33799  74.0314  81.2471 0023329 151.8547  24.5773 14.79600018888159"}}, "geometry": {"type": "Point", "coordinates": [67.47233630142036, -36.55379224702526]}}, {"type": "Feature", "properties": {"norad_id": 33805, "name": "COSMOS 2251 DEB", "group": "cosmos-2251-debris", "lat": 13.37241325769808, "lon": -46.75369283686279, "alt_km": 724.4937131636689, "timestamp": "2025-12-13T18:50:04.822836+00:00", "meta": {"OBJECT_NAME": "COSMOS 2251 DEB", "OBJECT_ID": "1993-036AW", "EPOCH": "2025-12-13T07:14:31.190496", "MEAN_MOTION": 14.57858204, "ECCENTRICITY": 0.00601779, "INCLINATION": 74.0308, "RA_OF_ASC_NODE": 310.2615, "ARG_OF_PERICENTER": 139.0931, "MEAN_ANOMALY": 221.4773, "EPHEMERIS_TYPE": 0, "CLASSIFICATION_TYPE": "U", "NORAD_CAT_ID": 33805, "ELEMENT_SET_NO": 999, "REV_AT_EPOCH": 89235, "BSTAR": 0.00038641079, "MEAN_MOTION_DOT": 1.784e-05, "MEAN_MOTION_DDOT": 0}, "tle": {"line1": "1 33805U 93036AW  25347.30174989  .00001784  00000+0  38641-3 0  9996", "line2": "2 33805  74.0308 310.2615 0060177 139.0931 221.4773 14.57858204892355"}}, "geometry": {"type": "Point", "coordinates": [-46.75369283686279, 13.37241325769808]}}, {"type": "Feature", "properties": {"norad_id": 33811, "name": "COSMOS 2251 DEB", "group": "cosmos-2251-debris", "lat": 57.35659485810913, "lon": -32.59280152252828, "alt_km": 528.3799109643332, "timestamp": "2025-12-13T18:50:04.822847+00:00", "meta": {"OBJECT_NAME": "COSMOS 2251 DEB", "OBJECT_ID": "1993-036BC", "EPOCH": "2025-12-13T07:56:26.452608", "MEAN_MOTION": 15.0530391, "ECCENTRICITY": 0.00307653, "INCLINATION": 73.8381, "RA_OF_ASC_NODE": 301.4303, "ARG_OF_PERICENTER": 21.9056, "MEAN_ANOMALY": 100.3723, "EPHEMERIS_TYPE": 0, "CLASSIFICATION_TYPE": "U", "NORAD_CAT_ID": 33811, "ELEMENT_SET_NO": 999, "REV_AT_EPOCH": 90027, "BSTAR": 0.0018663378, "MEAN_MOTION_DOT": 0.00027051, "MEAN_MOTION_DDOT": 0}, "tle": {"line1": "1 33811U 93036BC  25347.33086172  .00027051  00000+0  18663-2 0  9998", "line2": "2 33811  73.8381 301.4303 0030765  21.9056 100.3723 15.05303910900277"}}, "geometry": {"type": "Point", "coordinates": [-32.59280152252828, 57.35659485810913]}}, {"type": "Feature", "properties": {"norad_id": 33815, "name": "COSMOS 2251 DEB", "group": "cosmos-2251-debris", "lat": 2.033252396243621, "lon": -6.1970762218635596, "alt_km": 512.2142648329846, "timestamp": "2025-12-13T18:50:04.822858+00:00", "meta": {"OBJECT_NAME": "COSMOS 2251 DEB", "OBJECT_ID": "1993-036BG", "EPOCH": "2025-12-12T15:28:27.862752", "MEAN_MOTION": 15.1799981, "ECCENTRICITY": 0.00021253, "INCLINATION": 73.9533, "RA_OF_ASC_NODE": 176.7823, "ARG_OF_PERICENTER": 231.7009, "MEAN_ANOMALY": 198.021, "EPHEMERIS_TYPE": 0, "CLASSIFICATION_TYPE": "U", "NORAD_CAT_ID": 33815, "ELEMENT_SET_NO": 999, "REV_AT_EPOCH": 88369, "BSTAR": 0.0084975676, "MEAN_MOTION_DOT": 0.00177118, "MEAN_MOTION_DDOT": 0}, "tle": {"line1": "1 33815U 93036BG  25346.64476693  .00177118  00000+0  84976-2 0  9996", "line2": "2 33815  73.9533 176.7823 0002125 231.7009 198.0210 15.17999810883693"}}, "geometry": {"type": "Point", "coordinates": [-6.1970762218635596, 2.033252396243621]}}, {"type": "Feature", "properties": {"norad_id": 33816, "name": "COSMOS 2251 DEB", "group": "cosmos-2251-debris", "lat": -63.60004334945027, "lon": -40.78345277543681, "alt_km": 1092.4943647346663, "timestamp": "2025-12-13T18:50:04.822868+00:00", "meta": {"OBJECT_NAME": "COSMOS 2251 DEB", "OBJECT_ID": "1993-036BH", "EPOCH": "2025-12-13T02:01:14.695104", "MEAN_MOTION": 13.81784173, "ECCENTRICITY": 0.02646644, "INCLINATION": 73.8949, "RA_OF_ASC_NODE": 104.8119, "ARG_OF_PERICENTER": 117.6729, "MEAN_ANOMALY": 245.1523, "EPHEMERIS_TYPE": 0, "CLASSIFICATION_TYPE": "U", "NORAD_CAT_ID": 33816, "ELEMENT_SET_NO": 999, "REV_AT_EPOCH": 84678, "BSTAR": 0.00069600697, "MEAN_MOTION_DOT": 9.51e-06, "MEAN_MOTION_DDOT": 0}, "tle": {"line1": "1 33816U 93036BH  25347.08419786  .00000951  00000+0  69601-3 0  9995", "line2": "2 33816  73.8949 104.8119 0264664 117.6729 245.1523 13.81784173846786"}}, "geometry": {"type": "Point", "coordinates": [-40.78345277543681, -63.60004334945027]}}, {"type": "Feature", "properties": {"norad_id": 33818, "name": "COSMOS 2251 DEB", "group": "cosmos-2251-debris", "lat": 41.965390276279685, "lon": 178.95967069080345, "alt_km": 530.39165378915, "timestamp": "2025-12-13T18:50:04.822879+00:00", "meta": {"OBJECT_NAME": "COSMOS 2251 DEB", "OBJECT_ID": "1993-036BK", "EPOCH": "2025-12-12T22:32:20.243616", "MEAN_MOTION": 15.12515696, "ECCENTRICITY": 0.00269547, "INCLINATION": 74.0759, "RA_OF_ASC_NODE": 165.829, "ARG_OF_PERICENTER": 154.6193, "MEAN_ANOMALY": 327.025, "EPHEMERIS_TYPE": 0, "CLASSIFICATION_TYPE": "U", "NORAD_CAT_ID": 33818, "ELEMENT_SET_NO": 999, "REV_AT_EPOCH": 89865, "BSTAR": 0.003076367, "MEAN_MOTION_DOT": 0.00054435, "MEAN_MOTION_DDOT": 0}, "tle": {"line1": "1 33818U 93036BK  25346.93912319  .00054435  00000+0  30764-2 0  9993", "line2": "2 33818  74.0759 165.8290 0026954 154.6193 327.0250 15.12515696898659"}}, "geometry": {"type": "Point", "coordinates": [178.95967069080345, 41.965390276279685]}}, {"type": "Feature", "properties": {"norad_id": 33819, "name": "COSMOS 2251 DEB", "group": "cosmos-2251-debris", "lat": -44.84923052323685, "lon": 44.33917523895789, "alt_km": 849.7696159945981, "timestamp": "2025-12-13T18:50:04.822890+00:00", "meta": {"OBJECT_NAME": "COSMOS 2251 DEB", "OBJECT_ID": "1993-036BL", "EPOCH": "2025-12-13T01:45:45.436320", "MEAN_MOTION": 14.32225346, "ECCENTRICITY": 0.0089077, "INCLINATION": 74.1788, "RA_OF_ASC_NODE": 209.2419, "ARG_OF_PERICENTER": 70.4683, "MEAN_ANOMALY": 90.0335, "EPHEMERIS_TYPE": 0, "CLASSIFICATION_TYPE": "U", "NORAD_CAT_ID": 33819, "ELEMENT_SET_NO": 999, "REV_AT_EPOCH": 87500, "BSTAR": 0.00098908903, "MEAN_MOTION_DOT": 2.762e-05, "MEAN_MOTION_DDOT": 0}, "tle": {"line1": "1 33819U 93036BL  25347.07344255  .00002762  00000+0  98909-3 0  9990", "line2": "2 33819  74.1788 209.2419 0089077  70.4683  90.0335 14.32225346875009"}}, "geometry": {"type": "Point", "coordinates": [44.33917523895789, -44.84923052323685]}}, {"type": "Feature", "properties": {"norad_id": 33821, "name": "COSMOS 2251 DEB", "group": "cosmos-2251-debris", "lat": -68.15407200947266, "lon": 6.217013626560558, "alt_km": 490.67191161327537, "timestamp": "2025-12-13T18:50:04.822902+00:00", "meta": {"OBJECT_NAME": "COSMOS 2251 DEB", "OBJECT_ID": "1993-036BN", "EPOCH": "2025-12-13T03:33:25.130592", "MEAN_MOTION": 15.25349693, "ECCENTRICITY": 0.00517464, "INCLINATION": 74.03, "RA_OF_ASC_NODE": 141.9733, "ARG_OF_PERICENTER": 175.472, "MEAN_ANOMALY": 184.696, "EPHEMERIS_TYPE": 0, "CLASSIFICATION_TYPE": "U", "NORAD_CAT_ID": 33821, "ELEMENT_SET_NO": 999, "REV_AT_EPOCH": 75007, "BSTAR": 0.0017887236, "MEAN_MOTION_DOT": 0.00047136, "MEAN_MOTION_DDOT": 0}, "tle": {"line1": "1 33821U 93036BN  25347.14820753  .00047136  00000+0  17887-2 0  9992", "line2": "2 33821  74.0300 141.9733 0051746 175.4720 184.6960 15.25349693750070"}}, "geometry": {"type": "Point", "coordinates": [6.217013626560558, -68.15407200947266]}}, {"type": "Feature", "properties": {"norad_id": 33822, "name": "COSMOS 2251 DEB", "group": "cosmos-2251-debris", "lat": -16.353178192521856, "lon": -172.9694040458744, "alt_km": 880.6944591878191, "timestamp": "2025-12-13T18:50:04.822912+00:00", "meta": {"OBJECT_NAME": "COSMOS 2251 DEB", "OBJECT_ID": "1993-036BP", "EPOCH": "2025-12-13T00:57:47.664000", "MEAN_MOTION": 14.13072036, "ECCENTRICITY": 0.01533025, "INCLINATION": 74.0697, "RA_OF_ASC_NODE": 193.152, "ARG_OF_PERICENTER": 239.422, "MEAN_ANOMALY": 275.4076, "EPHEMERIS_TYPE": 0, "CLASSIFICATION_TYPE": "U", "NORAD_CAT_ID": 33822, "ELEMENT_SET_NO": 999, "REV_AT_EPOCH": 86058, "BSTAR": 0.0017854022, "MEAN_MOTION_DOT": 3.704e-05, "MEAN_MOTION_DDOT": 0}, "tle": {"line1": "1 33822U 93036BP  25347.04013500  .00003704  00000+0  17854-2 0  9993", "line2": "2 33822  74.0697 193.1520 0153302 239.4220 275.4076 14.13072036860585"}}, "geometry": {"type": "Point", "coordinates": [-172.9694040458744, -16.353178192521856]}}, {"type": "Feature", "properties": {"norad_id": 33823, "name": "COSMOS 2251 DEB", "group": "cosmos-2251-debris", "lat": 64.64988563440033, "lon": -70.32634064586163, "alt_km": 1035.9290885512119, "timestamp": "2025-12-13T18:50:04.822924+00:00", "meta": {"OBJECT_NAME": "COSMOS 2251 DEB", "OBJECT_ID": "1993-036BQ", "EPOCH": "2025-12-13T05:27:26.025984", "MEAN_MOTION": 13.98952348, "ECCENTRICITY": 0.02093365, "INCLINATION": 73.8088, "RA_OF_ASC_NODE": 148.4756, "ARG_OF_PERICENTER": 273.5568, "MEAN_ANOMALY": 270.8069, "EPHEMERIS_TYPE": 0, "CLASSIFICATION_TYPE": "U", "NORAD_CAT_ID": 33823, "ELEMENT_SET_NO": 999, "REV_AT_EPOCH": 85616, "BSTAR": 0.0011314256, "MEAN_MOTION_DOT": 1.944e-05, "MEAN_MOTION_DDOT": 0}, "tle": {"line1": "1 33823U 93036BQ  25347.22738456  .00001944  00000+0  11314-2 0  9997", "line2": "2 33823  73.8088 148.4756 0209336 273.5568 270.8069 13.98952348856169"}}, "geometry": {"type": "Point", "coordinates": [-70.32634064586163, 64.64988563440033]}}]}